{
  "type": "FeatureCollection",
  "features": [
    {
      "type": "Feature",
      "properties": {
        "norad_id": 66754,
        "name": "ICEYE-X61",
        "group": "last-30-days",
        "lat": 60.96128470465759,
        "lon": 59.68119395006654,
        "alt_km": 507.06774963216685,
        "timestamp": "2025-12-27T18:38:02.203678+00:00",
        "meta_object_name": "ICEYE-X61",
        "meta_object_id": "2025-276CS",
        "meta_epoch": "2025-12-27T12:02:01.466304",
        "meta_mean_motion": 15.17894063,
        "meta_eccentricity": 0.0002663,
        "meta_inclination": 97.4399,
        "meta_ra_of_asc_node": 73.0244,
        "meta_arg_of_pericenter": 177.6888,
        "meta_mean_anomaly": 182.4359,
        "meta_ephemeris_type": 0,
        "meta_classification_type": "U",
        "meta_norad_cat_id": 66754,
        "meta_element_set_no": 999,
        "meta_rev_at_epoch": 436,
        "meta_bstar": 0.00049267,
        "meta_mean_motion_dot": 9.927e-05,
        "meta_mean_motion_ddot": 0,
        "tle_line1": "1 66754U 25276CS  25361.50140586  .00009927  00000+0  49267-3 0  9993",
        "tle_line2": "2 66754  97.4399  73.0244 0002663 177.6888 182.4359 15.17894063  4362"
      },
      "geometry": {
        "type": "Point",
        "coordinates": [
          59.68119395006654,
          60.96128470465759
        ]
      }
    },
    {
      "type": "Feature",
      "properties": {
        "norad_id": 66755,
        "name": "ICEYE-X62",
        "group": "last-30-days",
        "lat": 34.693272681846366,
        "lon": 68.09233271190503,
        "alt_km": 511.57374426850856,
        "timestamp": "2025-12-27T18:38:02.203688+00:00",
        "meta_object_name": "ICEYE-X62",
        "meta_object_id": "2025-276CT",
        "meta_epoch": "2025-12-27T10:34:05.471040",
        "meta_mean_motion": 15.17673095,
        "meta_eccentricity": 0.0001386,
        "meta_inclination": 97.4399,
        "meta_ra_of_asc_node": 72.9523,
        "meta_arg_of_pericenter": 201.8684,
        "meta_mean_anomaly": 158.249,
        "meta_ephemeris_type": 0,
        "meta_classification_type": "U",
        "meta_norad_cat_id": 66755,
        "meta_element_set_no": 999,
        "meta_rev_at_epoch": 435,
        "meta_bstar": 0.00055275,
        "meta_mean_motion_dot": 0.00011076,
        "meta_mean_motion_ddot": 0,
        "tle_line1": "1 66755U 25276CT  25361.44034110  .00011076  00000+0  55275-3 0  9996",
        "tle_line2": "2 66755  97.4399  72.9523 0001386 201.8684 158.2490 15.17673095  4352"
      },
      "geometry": {
        "type": "Point",
        "coordinates": [
          68.09233271190503,
          34.693272681846366
        ]
      }
    },
    {
      "type": "Feature",
      "properties": {
        "norad_id": 66756,
        "name": "TRANSPORTER-15CU",
        "group": "last-30-days",
        "lat": 68.27987759044804,
        "lon": 54.15003640597611,
        "alt_km": 504.98107055494165,
        "timestamp": "2025-12-27T18:38:02.203700+00:00",
        "meta_object_name": "TRANSPORTER-15CU",
        "meta_object_id": "2025-276CU",
        "meta_epoch": "2025-12-27T08:50:11.463936",
        "meta_mean_motion": 15.18002897,
        "meta_eccentricity": 0.0001884,
        "meta_inclination": 97.4407,
        "meta_ra_of_asc_node": 72.9007,
        "meta_arg_of_pericenter": 149.805,
        "meta_mean_anomaly": 210.3293,
        "meta_ephemeris_type": 0,
        "meta_classification_type": "U",
        "meta_norad_cat_id": 66756,
        "meta_element_set_no": 999,
        "meta_rev_at_epoch": 434,
        "meta_bstar": 0.0005389,
        "meta_mean_motion_dot": 0.00010899,
        "meta_mean_motion_ddot": 0,
        "tle_line1": "1 66756U 25276CU  25361.36818824  .00010899  00000+0  53890-3 0  9993",
        "tle_line2": "2 66756  97.4407  72.9007 0001884 149.8050 210.3293 15.18002897  4348"
      },
      "geometry": {
        "type": "Point",
        "coordinates": [
          54.15003640597611,
          68.27987759044804
        ]
      }
    },
    {
      "type": "Feature",
      "properties": {
        "norad_id": 66757,
        "name": "TRANSPORTER-15CV",
        "group": "last-30-days",
        "lat": 75.85995705624471,
        "lon": 42.06918520212474,
        "alt_km": 507.9756894619295,
        "timestamp": "2025-12-27T18:38:02.203710+00:00",
        "meta_object_name": "TRANSPORTER-15CV",
        "meta_object_id": "2025-276CV",
        "meta_epoch": "2025-12-26T23:18:11.598048",
        "meta_mean_motion": 15.17836762,
        "meta_eccentricity": 0.00039586,
        "meta_inclination": 97.4382,
        "meta_ra_of_asc_node": 72.5157,
        "meta_arg_of_pericenter": 309.2672,
        "meta_mean_anomaly": 50.821,
        "meta_ephemeris_type": 0,
        "meta_classification_type": "U",
        "meta_norad_cat_id": 66757,
        "meta_element_set_no": 999,
        "meta_rev_at_epoch": 428,
        "meta_bstar": -0.010277728,
        "meta_mean_motion_dot": -0.00202306,
        "meta_mean_motion_ddot": 0,
        "tle_line1": "1 66757U 25276CV  25360.97096757 -.00202306  00000+0 -10278-1 0  9992",
        "tle_line2": "2 66757  97.4382  72.5157 0003958 309.2672  50.8210 15.17836762  4283"
      },
      "geometry": {
        "type": "Point",
        "coordinates": [
          42.06918520212474,
          75.85995705624471
        ]
      }
    },
    {
      "type": "Feature",
      "properties": {
        "norad_id": 66758,
        "name": "TRANSPORTER-15CW",
        "group": "last-30-days",
        "lat": 78.3362802081397,
        "lon": 34.03311755851835,
        "alt_km": 503.4835757759165,
        "timestamp": "2025-12-27T18:38:02.203725+00:00",
        "meta_object_name": "TRANSPORTER-15CW",
        "meta_object_id": "2025-276CW",
        "meta_epoch": "2025-12-27T10:22:08.604192",
        "meta_mean_motion": 15.18137154,
        "meta_eccentricity": 0.0001577,
        "meta_inclination": 97.4386,
        "meta_ra_of_asc_node": 72.9604,
        "meta_arg_of_pericenter": 134.5628,
        "meta_mean_anomaly": 225.5735,
        "meta_ephemeris_type": 0,
        "meta_classification_type": "U",
        "meta_norad_cat_id": 66758,
        "meta_element_set_no": 999,
        "meta_rev_at_epoch": 435,
        "meta_bstar": 0.00053112,
        "meta_mean_motion_dot": 0.00010782,
        "meta_mean_motion_ddot": 0,
        "tle_line1": "1 66758U 25276CW  25361.43204403  .00010782  00000+0  53112-3 0  9993",
        "tle_line2": "2 66758  97.4386  72.9604 0001577 134.5628 225.5735 15.18137154  4355"
      },
      "geometry": {
        "type": "Point",
        "coordinates": [
          34.03311755851835,
          78.3362802081397
        ]
      }
    },
    {
      "type": "Feature",
      "properties": {
        "norad_id": 66759,
        "name": "TRANSPORTER-15CX",
        "group": "last-30-days",
        "lat": 82.13358607150644,
        "lon": -35.70406229299613,
        "alt_km": 502.76513576771504,
        "timestamp": "2025-12-27T18:38:02.203736+00:00",
        "meta_object_name": "TRANSPORTER-15CX",
        "meta_object_id": "2025-276CX",
        "meta_epoch": "2025-12-27T10:19:09.045984",
        "meta_mean_motion": 15.18281729,
        "meta_eccentricity": 0.0001404,
        "meta_inclination": 97.4375,
        "meta_ra_of_asc_node": 72.9589,
        "meta_arg_of_pericenter": 130.0005,
        "meta_mean_anomaly": 230.1353,
        "meta_ephemeris_type": 0,
        "meta_classification_type": "U",
        "meta_norad_cat_id": 66759,
        "meta_element_set_no": 999,
        "meta_rev_at_epoch": 435,
        "meta_bstar": 0.0007522,
        "meta_mean_motion_dot": 0.00015371,
        "meta_mean_motion_ddot": 0,
        "tle_line1": "1 66759U 25276CX  25361.42996581  .00015371  00000+0  75220-3 0  9991",
        "tle_line2": "2 66759  97.4375  72.9589 0001404 130.0005 230.1353 15.18281729  4351"
      },
      "geometry": {
        "type": "Point",
        "coordinates": [
          -35.70406229299613,
          82.13358607150644
        ]
      }
    },
    {
      "type": "Feature",
      "properties": {
        "norad_id": 66760,
        "name": "TRANSPORTER-15CY",
        "group": "last-30-days",
        "lat": 81.51522486217566,
        "lon": -45.54672317843718,
        "alt_km": 502.53652387367674,
        "timestamp": "2025-12-27T18:38:02.203745+00:00",
        "meta_object_name": "TRANSPORTER-15CY",
        "meta_object_id": "2025-276CY",
        "meta_epoch": "2025-12-27T11:53:38.779008",
        "meta_mean_motion": 15.18250101,
        "meta_eccentricity": 0.0001734,
        "meta_inclination": 97.439,
        "meta_ra_of_asc_node": 73.03,
        "meta_arg_of_pericenter": 112.7681,
        "meta_mean_anomaly": 247.3737,
        "meta_ephemeris_type": 0,
        "meta_classification_type": "U",
        "meta_norad_cat_id": 66760,
        "meta_element_set_no": 999,
        "meta_rev_at_epoch": 436,
        "meta_bstar": 0.00056198,
        "meta_mean_motion_dot": 0.00011451,
        "meta_mean_motion_ddot": 0,
        "tle_line1": "1 66760U 25276CY  25361.49558772  .00011451  00000+0  56198-3 0  9994",
        "tle_line2": "2 66760  97.4390  73.0300 0001734 112.7681 247.3737 15.18250101  4363"
      },
      "geometry": {
        "type": "Point",
        "coordinates": [
          -45.54672317843718,
          81.51522486217566
        ]
      }
    }
  ]
}